1 29499U 06044A   16227.94996529 +.00000004 +00000-0 +21615-4 0  9991,2 29499 098.6909 286.0327 0001164 033.8998 318.4183 14.21500651509441
1 29499U 06044A   16229.15947030  .00000019  00000-0  28670-4 0  9993,2 29499  98.6908 287.2236 0001097  31.9137  26.4341 14.21500859509803
1 29499U 06044A   16230.21945543  .00000013  00000-0  25701-4 0  9995,2 29499  98.6906 288.2672 0001042  30.3273  49.3291 14.21500929509952
1 29499U 06044A   16231.41251338  .00000020  00000-0  28930-4 0  9995,2 29499  98.6905 289.4418 0000975  28.4910  33.0774 14.21501051510126
1 29499U 06044A   16231.61167156  .00000786  00000-0  35955-3 0  9994,2 29499  98.6902 289.6377 0000963  31.7960 328.3765 14.21503330511053
1 29499U 06044A   16232.55343293  .00000018  00000-0  28169-4 0  9994,2 29499  98.6903 290.5651 0000907  26.6008 110.2175 14.21501187510289
1 29499U 06044A   16232.94611112 +.00000011 +00000-0 +25103-4 0  9993,2 29499 098.6902 290.9517 0000885 025.8863 319.2907 14.21501211510156
1 29499U 06044A   16233.88497944  .00000013  00000-0  25763-4 0  9996,2 29499  98.6901 291.8761 0000833  24.3409  82.6928 14.21501348510479
1 29499U 06044A   16233.95942307 +.00000016 +00000-0 +27371-4 0  9992,2 29499 098.6901 291.9493 0000829 024.3003 103.4765 14.21501368510302
1 29499U 06044A   16235.21675821  .00000005  00000-0  22454-4 0  9992,2 29499  98.6899 293.1872 0000757  21.9547  56.4830 14.21501485510668
1 29499U 06044A   16236.48111394 -.00000002  00000-0  19141-4 0  9999,2 29499  98.6898 294.4320 0000686  20.1546  44.8512 14.21501576510849
1 29499U 06044A   16236.90773539 -.00000004 +00000-0 +17979-4 0  9990,2 29499 098.6897 294.8520 0000662 019.3875 067.5810 14.21501610510722
1 29499U 06044A   16237.82375888 -.00000008  00000-0  16116-4 0  9993,2 29499  98.6896 295.7537 0000608  17.5834  74.4027 14.21501713511030
1 29499U 06044A   16237.88692595 -.00000009 +00000-0 +15842-4 0  9992,2 29499 098.6896 295.8159 0000604 017.5122 037.5430 14.21501714510866
1 29499U 06044A   16239.15372682 -.00000011  00000-0  14998-4 0  9990,2 29499  98.6894 297.0630 0000531  14.5473  39.5828 14.21501845511226
1 29499U 06044A   16240.21377756 -.00000008  00000-0  16384-4 0  9993,2 29499  98.6893 298.1066 0000468  11.8866  63.8916 14.21501925511378
1 29499U 06044A   16241.48847307  .00000001  00000-0  20551-4 0  9990,2 29499  98.6892 299.3614 0000389   8.6395 106.5915 14.21502030511554
1 29499U 06044A   16241.90926255 +.00000006 +00000-0 +22712-4 0  9993,2 29499 098.6892 299.7756 0000363 007.2957 100.0707 14.21502080511436
1 29499U 06044A   16242.82133652  .00000010  00000-0  24340-4 0  9990,2 29499  98.6891 300.6734 0000308   4.9341  87.2512 14.21502194511743
1 29499U 06044A   16242.96866209 +.00000013 +00000-0 +26020-4 0  9996,2 29499 098.6891 300.8185 0000299 004.2394 121.4453 14.21502225511587
1 29499U 06044A   16244.22646447  .00000026  00000-0  31722-4 0  9996,2 29499  98.6889 302.0566 0000225 359.6351  79.1035 14.21502400511940
1 29499U 06044A   16244.86768442  .00000021  00000-0  29886-4 0  9999,2 29499  98.7222 302.6811 0000515  23.7202  94.5280 14.21484693512034
1 29499U 06044A   16244.93872883 +.00000022 +00000-0 +30277-4 0  9999,2 29499 098.7222 302.7512 0000485 024.4400 097.1623 14.21484829511868
1 29499U 06044A   16245.47809332  .00001984  00000-0  90727-3 0  9991,2 29499  98.7213 303.2831 0000460  34.6845 325.4852 14.21489840513026
1 29499U 06044A   16246.20013416  .00000020  00000-0  29220-4 0  9994,2 29499  98.7221 303.9973 0000367  25.0846  67.9242 14.21484965512225
1 29499U 06044A   16247.54601951  .00000019  00000-0  28607-4 0  9995,2 29499  98.7219 305.3271 0000296  27.4453 109.0400 14.21485151512413
1 29499U 06044A   16247.94105324 +.00000031 +00000-0 +34021-4 0  9993,2 29499 098.7218 305.7174 0000272 026.4838 330.3861 14.21485245512287
1 29499U 06044A   16248.86835990  .00000030  00000-0  33592-4 0  9995,2 29499  98.7216 306.6336 0000220  26.3122  33.2312 14.21485396512606
1 29499U 06044A   16248.92409723 +.00000027 +00000-0 +32395-4 0  9999,2 29499 098.7216 306.6887 0000217 026.1402 318.4696 14.21485394512423
1 29499U 06044A   16249.90763889  .00000021  00000-0  29730-4 0  9997,2 29499  98.7214 307.6604 0000166  29.4655 305.4301 14.21485499512748
1 29499U 06044A   16251.11480044  .00000010  00000-0  24842-4 0  9999,2 29499  98.7212 308.8531 0000098  38.7772 350.0999 14.21485625512925
1 29499U 06044A   16252.17714275  .00000007  00000-0  23224-4 0  9991,2 29499  98.7211 309.9026 0000049  73.4658 348.7209 14.21485769513074
1 29499U 06044A   16253.52931078  .00000004  00000-0  22032-4 0  9996,2 29499  98.7210 311.2385 0000076 145.7336 352.0661 14.21485940513265
1 29499U 06044A   16253.87775382 +.00000003 +00000-0 +21480-4 0  9993,2 29499 098.7209 311.5827 0000089 154.0939 325.8048 14.21485962513130
1 29499U 06044A   16254.93321968 +.00000004 +00000-0 +21700-4 0  9994,2 29499 098.7208 312.6254 0000144 164.6228 313.4171 14.21486045513284
1 29499U 06044A   16255.84732941  .00000005  00000-0  22330-4 0  9993,2 29499  98.7207 313.5284 0000191 168.4526 304.7680 14.21486133513591
1 29499U 06044A   16255.91710647 +.00000006 +00000-0 +22844-4 0  9991,2 29499 098.7207 313.5974 0000195 168.8021 301.2908 14.21486140513420
1 29499U 06044A   16256.90425912 +.00000006 +00000-0 +22647-4 0  9990,2 29499 098.7206 314.5725 0000251 170.5057 308.3435 14.21486243513568
1 29499U 06044A   16257.89701786  .00000015  00000-0  27057-4 0  9995,2 29499  98.7205 315.5533 0000306 171.3401 344.9381 14.21486394513886
1 29499U 06044A   16257.97047329 +.00000020 +00000-0 +29433-4 0  9996,2 29499 098.7205 315.6258 0000311 171.1895 000.7738 14.21486418513714
1 29499U 06044A   16259.14401588  .00000019  00000-0  28568-4 0  9994,2 29499  98.7203 316.7851 0000375 171.4414 242.5641 14.21486547514064
1 29499U 06044A   16259.62620867 -.00000163  00000-0  00000+0 0  9997,2 29499  98.7195 317.2617 0000367 161.2973 198.8707 14.21487053515035
1 29499U 06044A   16260.20266334  .00000025  00000-0  31338-4 0  9997,2 29499  98.7201 317.8308 0000434 170.7617 257.6593 14.21486677514218
1 29499U 06044A   16261.55191519  .00000025  00000-0  31499-4 0  9996,2 29499  98.7199 319.1636 0000512 169.7756 319.3477 14.21486857514400
1 29499U 06044A   16261.94913194 +.00000022 +00000-0 +30189-4 0  9992,2 29499 098.7198 319.5560 0000532 169.6769 190.9980 14.21486895514284
1 29499U 06044A   16262.81556397  .00000025  00000-0  31484-4 0  9999,2 29499  98.7197 320.4118 0000574 168.8651 303.1475 14.21487048514581
1 29499U 06044A   16262.93398148 +.00000028 +00000-0 +32808-4 0  9994,2 29499 098.7197 320.5288 0000581 168.7576 188.8975 14.21487071514414
1 29499U 06044A   16263.91699074 +.00000024 +00000-0 +30969-4 0  9997,2 29499 098.7195 321.4997 0000639 167.5136 177.7102 14.21487211514552
1 29499U 06044A   16264.92813751 +.00000016 +00000-0 +27304-4 0  9999,2 29499 098.7193 322.4985 0000694 166.1923 310.5091 14.21487309514707
1 29499U 06044A   16265.91183756 +.00000013 +00000-0 +26028-4 0  9993,2 29499 098.7191 323.4701 0000751 165.3054 302.4984 14.21487429514841
1 29499U 06044A   16266.75683270  .00000008  00000-0  23946-4 0  9992,2 29499  98.7190 324.3047 0000796 164.3571 305.1476 14.21487550515140
1 29499U 06044A   16266.94662076  .00000055  00000-0  25358-4 0  9995,2 29499  98.7189 324.4903 0000605 161.3627 198.8043 14.21487419516072
1 29499U 06044A   16267.79128322  .00000056  00000-0  25677-4 0  9995,2 29499  98.7188 325.3247 0000649 160.9968 199.1705 14.21487553516194
1 29499U 06044A   16268.04261918 -.00000001  00000-0  19385-4 0  9993,2 29499  98.7188 325.5746 0000859 162.8801  42.7393 14.21487654515322
1 29499U 06044A   16269.21383506  .00000015  00000-0  27131-4 0  9993,2 29499  98.7187 326.7314 0000917 161.6295 274.1374 14.21487837515495
1 29499U 06044A   16270.47827935  .00000011  00000-0  25121-4 0  9995,2 29499  98.7186 327.9802 0000985 159.7596 262.9691 14.21487925515671
1 29499U 06044A   16270.74760187  .00000028  00000-0  12644-4 0  9994,2 29499  98.7181 328.2442 0000853 158.3152 201.8542 14.21487741516615
1 29499U 06044A   16272.10236509  .00000023  00000-0  30666-4 0  9991,2 29499  98.7184 329.5841 0001067 157.3593 291.7072 14.21488174515909
1 29499U 06044A   16272.64809257  .00000030  00000-0  13782-4 0  9994,2 29499  98.7179 330.1212 0000904 157.3642 202.8063 14.21487868516887
1 29499U 06044A   16272.71848113  .00000031  00000-0  14033-4 0  9997,2 29499  98.7179 330.1908 0000906 157.0968 203.0737 14.21487870516894
1 29499U 06044A   16272.92815972 +.00000020 +00000-0 +29180-4 0  9994,2 29499 098.7183 330.3996 0001106 156.2739 196.2950 14.21488259515833
1 29499U 06044A   16273.91324074 +.00000034 +00000-0 +35422-4 0  9993,2 29499 098.7181 331.3724 0001151 154.9247 195.8127 14.21488417515972
1 29499U 06044A   16274.92259557 +.00000026 +00000-0 +31860-4 0  9991,2 29499 098.7179 332.3692 0001196 153.5912 319.4627 14.21488498516123
1 29499U 06044A   16275.82816767  .00000029  00000-0  33123-4 0  9990,2 29499  98.7177 333.2635 0001238 152.5446 272.0325 14.21488648516436
1 29499U 06044A   16275.95706019 +.00000030 +00000-0 +33791-4 0  9995,2 29499 098.7177 333.3908 0001244 152.4142 211.3802 14.21488671516273
1 29499U 06044A   16277.23768258  .00000034  00000-0  35605-4 0  9991,2 29499  98.7174 334.6554 0001302 150.7578 282.7452 14.21488928516638
1 29499U 06044A   16278.51161747  .00000022  00000-0  30182-4 0  9995,2 29499  98.7172 335.9134 0001359 148.7732 320.2362 14.21489070516812
1 29499U 06044A   16278.90818287 +.00000019 +00000-0 +28535-4 0  9991,2 29499 098.7171 336.3049 0001378 148.2135 189.0194 14.21489103516680
